start=new Date('%Y-%m-27T00:00:00.000Z').valueOf();
sats=[{"LAUNCH_DATE":"2019-11-11","ECCENTRICITY":"0.00019650","SITE":"AFETR","SEMIMAJOR_AXIS":"6925.367","NORAD_CAT_ID":"44748","ELEMENT_SET_NO":"999","DECAY_DATE":null,"TLE_LINE2":"2 44748  53.0540 121.9398 0001965  69.7794 290.3406 15.06393936 97883","ARG_OF_PERICENTER":"69.7794","MEAN_MOTION_DOT":"-0.00000603","REV_AT_EPOCH":"9788","RCS_SIZE":"LARGE","MEAN_ELEMENT_THEORY":"SGP4","FILE":"3101032","CENTER_NAME":"EARTH","REF_FRAME":"TEME","BSTAR":"-0.00002156000000","EPOCH":"2021-08-21T22:58:12.470592","OBJECT_TYPE":"PAYLOAD","EPHEMERIS_TYPE":"0","GP_ID":"183212590","APOAPSIS":"548.593","PERIOD":"95.593","OBJECT_ID":"2019-074AM","TLE_LINE1":"1 44748U 19074AM  21233.95708878 -.00000603  00000-0 -21560-4 0  9990","RA_OF_ASC_NODE":"121.9398","COUNTRY_CODE":"US","MEAN_MOTION_DDOT":"0.0000000000000","MEAN_ANOMALY":"290.3406","TIME_SYSTEM":"UTC","CLASSIFICATION_TYPE":"U","PERIAPSIS":"545.871","INCLINATION":"53.0540","OBJECT_NAME":"STARLINK-1043","MEAN_MOTION":"15.06393936"},{"OBJECT_TYPE":"PAYLOAD","EPOCH":"2021-08-21T21:52:17.464800","EPHEMERIS_TYPE":"0","REF_FRAME":"TEME","BSTAR":"0.00143270000000","FILE":"3101032","CENTER_NAME":"EARTH","REV_AT_EPOCH":"9861","MEAN_MOTION_DOT":"0.00226952","MEAN_ELEMENT_THEORY":"SGP4","RCS_SIZE":"LARGE","ARG_OF_PERICENTER":"275.5048","TLE_LINE2":"2 44749  53.0536  69.2947 0008290 275.5048  84.5025 15.75400703 98619","DECAY_DATE":null,"SITE":"AFETR","ECCENTRICITY":"0.00082900","LAUNCH_DATE":"2019-11-11","ELEMENT_SET_NO":"999","NORAD_CAT_ID":"44749","SEMIMAJOR_AXIS":"6721.628","OBJECT_NAME":"STARLINK-1044","MEAN_MOTION":"15.75400703","INCLINATION":"53.0536","PERIAPSIS":"337.921","TIME_SYSTEM":"UTC","CLASSIFICATION_TYPE":"U","COUNTRY_CODE":"US","MEAN_MOTION_DDOT":"0.0000000000000","MEAN_ANOMALY":"84.5025","TLE_LINE1":"1 44749U 19074AN  21233.91131325  .00226952  00000-0  14327-2 0  9990","RA_OF_ASC_NODE":"69.2947","APOAPSIS":"349.065","PERIOD":"91.405","GP_ID":"183211855","OBJECT_ID":"2019-074AN"},{"DECAY_DATE":null,"ARG_OF_PERICENTER":"77.1549","TLE_LINE2":"2 44751  53.0551 121.8761 0001826  77.1549 282.9644 15.06397739 97885","ELEMENT_SET_NO":"999","NORAD_CAT_ID":"44751","SEMIMAJOR_AXIS":"6925.355","SITE":"AFETR","ECCENTRICITY":"0.00018260","LAUNCH_DATE":"2019-11-11","BSTAR":"-0.00005656600000","REF_FRAME":"TEME","EPHEMERIS_TYPE":"0","OBJECT_TYPE":"PAYLOAD","EPOCH":"2021-08-21T23:19:25.920192","MEAN_ELEMENT_THEORY":"SGP4","RCS_SIZE":"LARGE","REV_AT_EPOCH":"9788","MEAN_MOTION_DOT":"-0.00001124","CENTER_NAME":"EARTH","FILE":"3101032","RA_OF_ASC_NODE":"121.8761","TLE_LINE1":"1 44751U 19074AQ  21233.97182778 -.00001124  00000-0 -56566-4 0  9994","MEAN_MOTION_DDOT":"0.0000000000000","MEAN_ANOMALY":"282.9644","COUNTRY_CODE":"US","OBJECT_ID":"2019-074AQ","PERIOD":"95.592","APOAPSIS":"548.485","GP_ID":"183212103","INCLINATION":"53.0551","PERIAPSIS":"545.956","MEAN_MOTION":"15.06397739","OBJECT_NAME":"STARLINK-1046","CLASSIFICATION_TYPE":"U","TIME_SYSTEM":"UTC"},{"DECAY_DATE":null,"ARG_OF_PERICENTER":"86.3102","TLE_LINE2":"2 44752  53.0536 102.0796 0002046  86.3102 273.8120 15.06395767 98158","SITE":"AFETR","ECCENTRICITY":"0.00020460","LAUNCH_DATE":"2019-11-11","ELEMENT_SET_NO":"999","NORAD_CAT_ID":"44752","SEMIMAJOR_AXIS":"6925.362","REF_FRAME":"TEME","BSTAR":"-0.00000680340000","OBJECT_TYPE":"PAYLOAD","EPOCH":"2021-08-21T22:13:04.998720","EPHEMERIS_TYPE":"0","REV_AT_EPOCH":"9815","MEAN_MOTION_DOT":"-0.00000383","MEAN_ELEMENT_THEORY":"SGP4","RCS_SIZE":"LARGE","FILE":"3101032","CENTER_NAME":"EARTH","TLE_LINE1":"1 44752U 19074AR  21233.92575230 -.00000383  00000-0 -68034-5 0  9999","RA_OF_ASC_NODE":"102.0796","COUNTRY_CODE":"US","MEAN_ANOMALY":"273.8120","MEAN_MOTION_DDOT":"0.0000000000000","APOAPSIS":"548.643","PERIOD":"95.592","GP_ID":"183212353","OBJECT_ID":"2019-074AR","INCLINATION":"53.0536","PERIAPSIS":"545.810","OBJECT_NAME":"STARLINK-1047","MEAN_MOTION":"15.06395767","TIME_SYSTEM":"UTC","CLASSIFICATION_TYPE":"U"},{"TIME_SYSTEM":"UTC","CLASSIFICATION_TYPE":"U","INCLINATION":"53.0548","PERIAPSIS":"545.917","OBJECT_NAME":"STARLINK-1048","MEAN_MOTION":"15.06394405","APOAPSIS":"548.544","PERIOD":"95.592","GP_ID":"183213091","OBJECT_ID":"2019-074AS","TLE_LINE1":"1 44753U 19074AS  21233.86493823 -.00001014  00000-0 -49198-4 0  9991","RA_OF_ASC_NODE":"82.3634","COUNTRY_CODE":"US","MEAN_MOTION_DDOT":"0.0000000000000","MEAN_ANOMALY":"273.0624","REV_AT_EPOCH":"9842","MEAN_MOTION_DOT":"-0.00001014","MEAN_ELEMENT_THEORY":"SGP4","RCS_SIZE":"LARGE","FILE":"3101032","CENTER_NAME":"EARTH","REF_FRAME":"TEME","BSTAR":"-0.00004919800000","OBJECT_TYPE":"PAYLOAD","EPOCH":"2021-08-21T20:45:30.663072","EPHEMERIS_TYPE":"0","SITE":"AFETR","ECCENTRICITY":"0.00018970","LAUNCH_DATE":"2019-11-11","ELEMENT_SET_NO":"999","SEMIMAJOR_AXIS":"6925.366","NORAD_CAT_ID":"44753","DECAY_DATE":null,"ARG_OF_PERICENTER":"87.0582","TLE_LINE2":"2 44753  53.0548  82.3634 0001897  87.0582 273.0624 15.06394405 98425"},{"COUNTRY_CODE":"US","MEAN_MOTION_DDOT":"0.0000000000000","MEAN_ANOMALY":"270.1576","TLE_LINE1":"1 44754U 19074AT  21233.86862272 -.00000797  00000-0 -34637-4 0  9999","RA_OF_ASC_NODE":"82.3380","PERIOD":"95.592","APOAPSIS":"548.358","GP_ID":"183211355","OBJECT_ID":"2019-074AT","OBJECT_NAME":"STARLINK-1049","MEAN_MOTION":"15.06394546","INCLINATION":"53.0553","PERIAPSIS":"546.103","TIME_SYSTEM":"UTC","CLASSIFICATION_TYPE":"U","ARG_OF_PERICENTER":"89.9599","TLE_LINE2":"2 44754  53.0553  82.3380 0001628  89.9599 270.1576 15.06394546 98421","DECAY_DATE":null,"SITE":"AFETR","ECCENTRICITY":"0.00016280","LAUNCH_DATE":"2019-11-11","ELEMENT_SET_NO":"999","SEMIMAJOR_AXIS":"6925.365","NORAD_CAT_ID":"44754","OBJECT_TYPE":"PAYLOAD","EPOCH":"2021-08-21T20:50:49.003008","EPHEMERIS_TYPE":"0","REF_FRAME":"TEME","BSTAR":"-0.00003463700000","FILE":"3101032","CENTER_NAME":"EARTH","REV_AT_EPOCH":"9842","MEAN_MOTION_DOT":"-0.00000797","MEAN_ELEMENT_THEORY":"SGP4","RCS_SIZE":"LARGE"},{"LAUNCH_DATE":"2019-11-11","ECCENTRICITY":"0.00021670","SITE":"AFETR","SEMIMAJOR_AXIS":"6925.366","NORAD_CAT_ID":"44755","ELEMENT_SET_NO":"999","DECAY_DATE":null,"TLE_LINE2":"2 44755  53.0546 122.7207 0002167  75.8694 284.2536 15.06394153 98404","ARG_OF_PERICENTER":"75.8694","MEAN_MOTION_DOT":"-0.00000978","REV_AT_EPOCH":"9840","RCS_SIZE":"LARGE","MEAN_ELEMENT_THEORY":"SGP4","FILE":"3101032","CENTER_NAME":"EARTH","REF_FRAME":"TEME","BSTAR":"-0.00004673500000","EPOCH":"2021-08-21T18:48:44.302176","OBJECT_TYPE":"PAYLOAD","EPHEMERIS_TYPE":"0","GP_ID":"183211603","PERIOD":"95.593","APOAPSIS":"548.732","OBJECT_ID":"2019-074AU","TLE_LINE1":"1 44755U 19074AU  21233.78384609 -.00000978  00000-0 -46735-4 0  9997","RA_OF_ASC_NODE":"122.7207","COUNTRY_CODE":"US","MEAN_MOTION_DDOT":"0.0000000000000","MEAN_ANOMALY":"284.2536","TIME_SYSTEM":"UTC","CLASSIFICATION_TYPE":"U","PERIAPSIS":"545.731","INCLINATION":"53.0546","OBJECT_NAME":"STARLINK-1050","MEAN_MOTION":"15.06394153"},{"RA_OF_ASC_NODE":"46.1451","TLE_LINE1":"1 44756U 19074AV  21233.90116740  .00053443  00000-0  45404-3 0  9995","MEAN_MOTION_DDOT":"0.0000000000000","MEAN_ANOMALY":"341.5256","COUNTRY_CODE":"US","OBJECT_ID":"2019-074AV","GP_ID":"183212854","PERIOD":"91.771","APOAPSIS":"362.558","PERIAPSIS":"360.293","INCLINATION":"53.0523","MEAN_MOTION":"15.69117170","OBJECT_NAME":"STARLINK-1051","CLASSIFICATION_TYPE":"U","TIME_SYSTEM":"UTC","DECAY_DATE":null,"TLE_LINE2":"2 44756  53.0523  46.1451 0001680  18.5821 341.5256 15.69117170 98930","ARG_OF_PERICENTER":"18.5821","NORAD_CAT_ID":"44756","SEMIMAJOR_AXIS":"6739.561","ELEMENT_SET_NO":"999","ECCENTRICITY":"0.00016800","LAUNCH_DATE":"2019-11-11","SITE":"AFETR","BSTAR":"0.00045404000000","REF_FRAME":"TEME","EPHEMERIS_TYPE":"0","EPOCH":"2021-08-21T21:37:40.863360","OBJECT_TYPE":"PAYLOAD","RCS_SIZE":"LARGE","MEAN_ELEMENT_THEORY":"SGP4","MEAN_MOTION_DOT":"0.00053443","REV_AT_EPOCH":"9893","CENTER_NAME":"EARTH","FILE":"3101032"},{"OBJECT_ID":"2019-074AW","APOAPSIS":"548.633","PERIOD":"95.593","GP_ID":"183212591","RA_OF_ASC_NODE":"102.0194","TLE_LINE1":"1 44757U 19074AW  21233.93681573 -.00000420  00000-0 -93062-5 0  9994","MEAN_MOTION_DDOT":"0.0000000000000","MEAN_ANOMALY":"280.9071","COUNTRY_CODE":"US","CLASSIFICATION_TYPE":"U","TIME_SYSTEM":"UTC","INCLINATION":"53.0536","PERIAPSIS":"545.839","MEAN_MOTION":"15.06392569","OBJECT_NAME":"STARLINK-1052","ELEMENT_SET_NO":"999","NORAD_CAT_ID":"44757","SEMIMAJOR_AXIS":"6925.371","SITE":"AFETR","LAUNCH_DATE":"2019-11-11","ECCENTRICITY":"0.00020170","DECAY_DATE":null,"ARG_OF_PERICENTER":"79.2145","TLE_LINE2":"2 44757  53.0536 102.0194 0002017  79.2145 280.9071 15.06392569 98152","MEAN_ELEMENT_THEORY":"SGP4","RCS_SIZE":"LARGE","REV_AT_EPOCH":"9815","MEAN_MOTION_DOT":"-0.00000420","CENTER_NAME":"EARTH","FILE":"3101032","BSTAR":"-0.00000930620000","REF_FRAME":"TEME","EPHEMERIS_TYPE":"0","OBJECT_TYPE":"PAYLOAD","EPOCH":"2021-08-21T22:29:00.879072"},{"DECAY_DATE":null,"TLE_LINE2":"2 44758  53.0534 121.9898 0002676  69.9121 290.2155 15.06395321 97888","ARG_OF_PERICENTER":"69.9121","NORAD_CAT_ID":"44758","SEMIMAJOR_AXIS":"6925.363","ELEMENT_SET_NO":"999","ECCENTRICITY":"0.00026760","LAUNCH_DATE":"2019-11-11","SITE":"AFETR","BSTAR":"0.00011701000000","REF_FRAME":"TEME","EPHEMERIS_TYPE":"0","EPOCH":"2021-08-21T22:40:55.801920","OBJECT_TYPE":"PAYLOAD","RCS_SIZE":"LARGE","MEAN_ELEMENT_THEORY":"SGP4","MEAN_MOTION_DOT":"0.00001461","REV_AT_EPOCH":"9788","CENTER_NAME":"EARTH","FILE":"3101032","RA_OF_ASC_NODE":"121.9898","TLE_LINE1":"1 44758U 19074AX  21233.94509030  .00001461  00000-0  11701-3 0  9995","MEAN_MOTION_DDOT":"0.0000000000000","MEAN_ANOMALY":"290.2155","COUNTRY_CODE":"US","OBJECT_ID":"2019-074AX","GP_ID":"183211856","PERIOD":"95.592","APOAPSIS":"549.081","PERIAPSIS":"545.375","INCLINATION":"53.0534","MEAN_MOTION":"15.06395321","OBJECT_NAME":"STARLINK-1053","CLASSIFICATION_TYPE":"U","TIME_SYSTEM":"UTC"}];
